[{"OBJECT_NAME":"STARLINK-36714","OBJECT_ID":"2026-036W","EPOCH":"2026-03-14T14:00:01.999872","MEAN_MOTION":15.67385344,"ECCENTRICITY":0.00015666,"INCLINATION":42.9991,"RA_OF_ASC_NODE":219.836,"ARG_OF_PERICENTER":279.8495,"MEAN_ANOMALY":131.9476,"EPHEMERIS_TYPE":0,"CLASSIFICATION_TYPE":"U","NORAD_CAT_ID":67924,"ELEMENT_SET_NO":999,"REV_AT_EPOCH":443,"BSTAR":-0.019789064,"MEAN_MOTION_DOT":-0.01945465,"MEAN_MOTION_DDOT":0},{"OBJECT_NAME":"STARLINK-36726","OBJECT_ID":"2026-036X","EPOCH":"2026-03-14T14:00:01.999872","MEAN_MOTION":15.57837206,"ECCENTRICITY":0.00015159,"INCLINATION":42.9994,"RA_OF_ASC_NODE":220.2217,"ARG_OF_PERICENTER":269.6476,"MEAN_ANOMALY":346.7004,"EPHEMERIS_TYPE":0,"CLASSIFICATION_TYPE":"U","NORAD_CAT_ID":67925,"ELEMENT_SET_NO":999,"REV_AT_EPOCH":443,"BSTAR":-0.028816814,"MEAN_MOTION_DOT":-0.0194189,"MEAN_MOTION_DDOT":0},{"OBJECT_NAME":"STARLINK-36758","OBJECT_ID":"2026-036Y","EPOCH":"2026-03-14T14:00:01.999872","MEAN_MOTION":15.64832518,"ECCENTRICITY":0.00016488,"INCLINATION":42.9994,"RA_OF_ASC_NODE":219.9014,"ARG_OF_PERICENTER":278.7131,"MEAN_ANOMALY":106.6184,"EPHEMERIS_TYPE":0,"CLASSIFICATION_TYPE":"U","NORAD_CAT_ID":67926,"ELEMENT_SET_NO":999,"REV_AT_EPOCH":443,"BSTAR":-0.021959426,"MEAN_MOTION_DOT":-0.01945626,"MEAN_MOTION_DDOT":0},{"OBJECT_NAME":"STARLINK-36728","OBJECT_ID":"2026-036Z","EPOCH":"2026-03-14T14:00:01.999872","MEAN_MOTION":15.68263131,"ECCENTRICITY":0.00014931,"INCLINATION":42.9991,"RA_OF_ASC_NODE":219.7657,"ARG_OF_PERICENTER":282.2177,"MEAN_ANOMALY":157.3675,"EPHEMERIS_TYPE":0,"CLASSIFICATION_TYPE":"U","NORAD_CAT_ID":67927,"ELEMENT_SET_NO":999,"REV_AT_EPOCH":443,"BSTAR":-0.019099129,"MEAN_MOTION_DOT":-0.01946802,"MEAN_MOTION_DDOT":0},{"OBJECT_NAME":"STARLINK-36771","OBJECT_ID":"2026-036AA","EPOCH":"2026-03-14T14:00:01.999872","MEAN_MOTION":15.66503615,"ECCENTRICITY":0.00015799,"INCLINATION":42.9991,"RA_OF_ASC_NODE":219.8313,"ARG_OF_PERICENTER":279.1414,"MEAN_ANOMALY":134.0008,"EPHEMERIS_TYPE":0,"CLASSIFICATION_TYPE":"U","NORAD_CAT_ID":67928,"ELEMENT_SET_NO":999,"REV_AT_EPOCH":443,"BSTAR":-0.020518252,"MEAN_MOTION_DOT":-0.0194548,"MEAN_MOTION_DDOT":0},{"OBJECT_NAME":"STARLINK-36809","OBJECT_ID":"2026-036AB","EPOCH":"2026-03-14T14:00:01.999872","MEAN_MOTION":15.66528721,"ECCENTRICITY":0.0001562,"INCLINATION":42.999,"RA_OF_ASC_NODE":219.809,"ARG_OF_PERICENTER":280.5347,"MEAN_ANOMALY":141.4748,"EPHEMERIS_TYPE":0,"CLASSIFICATION_TYPE":"U","NORAD_CAT_ID":67929,"ELEMENT_SET_NO":999,"REV_AT_EPOCH":443,"BSTAR":-0.020497256,"MEAN_MOTION_DOT":-0.01945471,"MEAN_MOTION_DDOT":0},{"OBJECT_NAME":"STARLINK-36865","OBJECT_ID":"2026-036AC","EPOCH":"2026-03-14T14:00:01.999872","MEAN_MOTION":15.71130486,"ECCENTRICITY":0.00013853,"INCLINATION":42.9989,"RA_OF_ASC_NODE":219.6568,"ARG_OF_PERICENTER":281.5208,"MEAN_ANOMALY":201.3459,"EPHEMERIS_TYPE":0,"CLASSIFICATION_TYPE":"U","NORAD_CAT_ID":67930,"ELEMENT_SET_NO":999,"REV_AT_EPOCH":443,"BSTAR":-0.016928877,"MEAN_MOTION_DOT":-0.01946599,"MEAN_MOTION_DDOT":0},{"OBJECT_NAME":"STARLINK-36781","OBJECT_ID":"2026-036AD","EPOCH":"2026-03-14T14:00:01.999872","MEAN_MOTION":15.70533653,"ECCENTRICITY":0.00013641,"INCLINATION":42.9988,"RA_OF_ASC_NODE":219.682,"ARG_OF_PERICENTER":282.0976,"MEAN_ANOMALY":190.7725,"EPHEMERIS_TYPE":0,"CLASSIFICATION_TYPE":"U","NORAD_CAT_ID":67931,"ELEMENT_SET_NO":999,"REV_AT_EPOCH":443,"BSTAR":-0.017319495,"MEAN_MOTION_DOT":-0.01942222,"MEAN_MOTION_DDOT":0},{"OBJECT_NAME":"STARLINK-36301","OBJECT_ID":"2026-037A","EPOCH":"2026-03-14T15:06:37.147104","MEAN_MOTION":15.82171548,"ECCENTRICITY":0.00019011,"INCLINATION":42.9974,"RA_OF_ASC_NODE":168.3038,"ARG_OF_PERICENTER":0.5643,"MEAN_ANOMALY":359.523,"EPHEMERIS_TYPE":0,"CLASSIFICATION_TYPE":"U","NORAD_CAT_ID":67932,"ELEMENT_SET_NO":999,"REV_AT_EPOCH":403,"BSTAR":0.0020276458,"MEAN_MOTION_DOT":0.00452797,"MEAN_MOTION_DDOT":0},{"OBJECT_NAME":"STARLINK-36852","OBJECT_ID":"2026-037B","EPOCH":"2026-03-14T14:00:01.999872","MEAN_MOTION":15.78887537,"ECCENTRICITY":0.0001333,"INCLINATION":42.999,"RA_OF_ASC_NODE":168.5892,"ARG_OF_PERICENTER":287.3953,"MEAN_ANOMALY":169.1198,"EPHEMERIS_TYPE":0,"CLASSIFICATION_TYPE":"U","NORAD_CAT_ID":67933,"ELEMENT_SET_NO":999,"REV_AT_EPOCH":398,"BSTAR":-0.011928208,"MEAN_MOTION_DOT":-0.01895894,"MEAN_MOTION_DDOT":0},{"OBJECT_NAME":"STARLINK-36861","OBJECT_ID":"2026-037C","EPOCH":"2026-03-14T15:04:26.969952","MEAN_MOTION":15.82059687,"ECCENTRICITY":0.00016536,"INCLINATION":42.9977,"RA_OF_ASC_NODE":168.2912,"ARG_OF_PERICENTER":275.3765,"MEAN_ANOMALY":84.6918,"EPHEMERIS_TYPE":0,"CLASSIFICATION_TYPE":"U","NORAD_CAT_ID":67934,"ELEMENT_SET_NO":999,"REV_AT_EPOCH":403,"BSTAR":0.0022241191,"MEAN_MOTION_DOT":0.004967,"MEAN_MOTION_DDOT":0},{"OBJECT_NAME":"STARLINK-36860","OBJECT_ID":"2026-037D","EPOCH":"2026-03-14T15:03:21.672288","MEAN_MOTION":15.82166927,"ECCENTRICITY":0.00024067,"INCLINATION":42.9973,"RA_OF_ASC_NODE":168.2861,"ARG_OF_PERICENTER":284.198,"MEAN_ANOMALY":75.8624,"EPHEMERIS_TYPE":0,"CLASSIFICATION_TYPE":"U","NORAD_CAT_ID":67935,"ELEMENT_SET_NO":999,"REV_AT_EPOCH":403,"BSTAR":0.0014902867,"MEAN_MOTION_DOT":0.00327753,"MEAN_MOTION_DDOT":0},{"OBJECT_NAME":"STARLINK-36848","OBJECT_ID":"2026-037E","EPOCH":"2026-03-14T13:30:18.007488","MEAN_MOTION":15.82135733,"ECCENTRICITY":0.00011859,"INCLINATION":42.9976,"RA_OF_ASC_NODE":168.6596,"ARG_OF_PERICENTER":219.2491,"MEAN_ANOMALY":140.8295,"EPHEMERIS_TYPE":0,"CLASSIFICATION_TYPE":"U","NORAD_CAT_ID":67936,"ELEMENT_SET_NO":999,"REV_AT_EPOCH":402,"BSTAR":0.0023939483,"MEAN_MOTION_DOT":0.00539288,"MEAN_MOTION_DDOT":0},{"OBJECT_NAME":"STARLINK-36370","OBJECT_ID":"2026-037F","EPOCH":"2026-03-14T15:02:17.412288","MEAN_MOTION":15.82122356,"ECCENTRICITY":0.0001538,"INCLINATION":42.998,"RA_OF_ASC_NODE":168.28,"ARG_OF_PERICENTER":265.6145,"MEAN_ANOMALY":94.4551,"EPHEMERIS_TYPE":0,"CLASSIFICATION_TYPE":"U","NORAD_CAT_ID":67937,"ELEMENT_SET_NO":999,"REV_AT_EPOCH":403,"BSTAR":0.0012291907,"MEAN_MOTION_DOT":0.00267784,"MEAN_MOTION_DDOT":0},{"OBJECT_NAME":"STARLINK-36371","OBJECT_ID":"2026-037G","EPOCH":"2026-03-14T15:00:07.978176","MEAN_MOTION":15.82131193,"ECCENTRICITY":0.00013536,"INCLINATION":42.9978,"RA_OF_ASC_NODE":168.2664,"ARG_OF_PERICENTER":282.9086,"MEAN_ANOMALY":77.1634,"EPHEMERIS_TYPE":0,"CLASSIFICATION_TYPE":"U","NORAD_CAT_ID":67938,"ELEMENT_SET_NO":999,"REV_AT_EPOCH":403,"BSTAR":0.001280259,"MEAN_MOTION_DOT":0.00279427,"MEAN_MOTION_DDOT":0},{"OBJECT_NAME":"STARLINK-36246","OBJECT_ID":"2026-037H","EPOCH":"2026-03-14T14:59:03.255936","MEAN_MOTION":15.82141904,"ECCENTRICITY":0.00014205,"INCLINATION":42.9981,"RA_OF_ASC_NODE":168.261,"ARG_OF_PERICENTER":281.2556,"MEAN_ANOMALY":78.8156,"EPHEMERIS_TYPE":0,"CLASSIFICATION_TYPE":"U","NORAD_CAT_ID":67939,"ELEMENT_SET_NO":999,"REV_AT_EPOCH":403,"BSTAR":0.0014202306,"MEAN_MOTION_DOT":0.00311351,"MEAN_MOTION_DDOT":0}]
