STARLINK-36714          
1 67924U 26036W   26073.58335648 -.01945465  00000+0 -19789-1 0  9995
2 67924  42.9991 219.8360 0001566 279.8495 131.9476 15.67385344  4433
STARLINK-36726          
1 67925U 26036X   26073.58335648 -.01941890  00000+0 -28817-1 0  9996
2 67925  42.9994 220.2217 0001515 269.6476 346.7004 15.57837206  4435
STARLINK-36758          
1 67926U 26036Y   26073.58335648 -.01945626  00000+0 -21959-1 0  9998
2 67926  42.9994 219.9014 0001648 278.7131 106.6184 15.64832518  4433
STARLINK-36728          
1 67927U 26036Z   26073.58335648 -.01946802  00000+0 -19099-1 0  9998
2 67927  42.9991 219.7657 0001493 282.2177 157.3675 15.68263131  4431
STARLINK-36771          
1 67928U 26036AA  26073.58335648 -.01945480  00000+0 -20518-1 0  9998
2 67928  42.9991 219.8313 0001579 279.1414 134.0008 15.66503615  4430
STARLINK-36809          
1 67929U 26036AB  26073.58335648 -.01945471  00000+0 -20497-1 0  9995
2 67929  42.9990 219.8090 0001562 280.5347 141.4748 15.66528721  4433
STARLINK-36865          
1 67930U 26036AC  26073.58335648 -.01946599  00000+0 -16929-1 0  9994
2 67930  42.9989 219.6568 0001385 281.5208 201.3459 15.71130486  4439
STARLINK-36781          
1 67931U 26036AD  26073.58335648 -.01942222  00000+0 -17319-1 0  9998
2 67931  42.9988 219.6820 0001364 282.0976 190.7725 15.70533653  4434
STARLINK-36301          
1 67932U 26037A   26073.62959661  .00452797  00000+0  20276-2 0  9999
2 67932  42.9974 168.3038 0001901   0.5643 359.5230 15.82171548  4038
STARLINK-36852          
1 67933U 26037B   26073.58335648 -.01895894  00000+0 -11928-1 0  9993
2 67933  42.9990 168.5892 0001333 287.3953 169.1198 15.78887537  3983
STARLINK-36861          
1 67934U 26037C   26073.62808993  .00496700  00000+0  22241-2 0  9998
2 67934  42.9977 168.2912 0001653 275.3765  84.6918 15.82059687  4032
STARLINK-36860          
1 67935U 26037D   26073.62733417  .00327753  00000+0  14903-2 0  9994
2 67935  42.9973 168.2861 0002406 284.1980  75.8624 15.82166927  4038
STARLINK-36848          
1 67936U 26037E   26073.56270842  .00539288  00000+0  23939-2 0  9993
2 67936  42.9976 168.6596 0001185 219.2491 140.8295 15.82135733  4027
STARLINK-36370          
1 67937U 26037F   26073.62659042  .00267784  00000+0  12292-2 0  9993
2 67937  42.9980 168.2800 0001538 265.6145  94.4551 15.82122356  4037
STARLINK-36371          
1 67938U 26037G   26073.62509234  .00279427  00000+0  12803-2 0  9996
2 67938  42.9978 168.2664 0001353 282.9086  77.1634 15.82131193  4033
STARLINK-36246          
1 67939U 26037H   26073.62434324  .00311351  00000+0  14202-2 0  9992
2 67939  42.9981 168.2610 0001420 281.2556  78.8156 15.82141904  4036
